STARLINK-1212
1 15223C 20012AX  21326.15053442  .00025837  00000-0  17324-2 0  3267
2 15223  53.0536 208.0676 0001997  69.1666 144.9970 15.06344569    17
